[{"OBJECT_NAME":"STARLINK-32906","OBJECT_ID":"2025-037D","EPOCH":"2026-03-09T22:21:33.765984","MEAN_MOTION":14.98332215,"ECCENTRICITY":0.00032932,"INCLINATION":70.0028,"RA_OF_ASC_NODE":354.027,"ARG_OF_PERICENTER":275.1513,"MEAN_ANOMALY":84.927,"EPHEMERIS_TYPE":0,"CLASSIFICATION_TYPE":"U","NORAD_CAT_ID":63080,"ELEMENT_SET_NO":999,"REV_AT_EPOCH":5863,"BSTAR":0.00086720793,"MEAN_MOTION_DOT":0.0001027,"MEAN_MOTION_DDOT":0},{"OBJECT_NAME":"CZ-4C R\/B","OBJECT_ID":"2024-186B","EPOCH":"2026-03-09T22:51:12.491424","MEAN_MOTION":15.07425891,"ECCENTRICITY":0.00475116,"INCLINATION":97.8722,"RA_OF_ASC_NODE":96.5934,"ARG_OF_PERICENTER":122.4234,"MEAN_ANOMALY":238.1602,"EPHEMERIS_TYPE":0,"CLASSIFICATION_TYPE":"U","NORAD_CAT_ID":61572,"ELEMENT_SET_NO":999,"REV_AT_EPOCH":7672,"BSTAR":0.00027865777,"MEAN_MOTION_DOT":4.262e-5,"MEAN_MOTION_DDOT":0}]
